[{"pk": 6, "model": "common.address", "fields": {"city": "Hyderabad", "zip": 500081, "area": "Hi-TechCity,Madhapur", "longitude": null, "landmark": "Ayyapa society, kana mitta", "created_on": "2008-10-03 10:32:51", "place": "Favmeal", "modified_on": "2008-10-03 10:32:51", "latitude": null}}, {"pk": 7, "model": "common.address", "fields": {"city": "Hyderabad", "zip": 500004, "area": "khairatabad", "longitude": null, "landmark": "khairatabad", "created_on": "2008-10-03 11:29:15", "place": "6-1-503/2", "modified_on": "2008-10-03 11:29:15", "latitude": null}}, {"pk": 8, "model": "common.address", "fields": {"city": "Hyderabad", "zip": 500081, "area": "Hi-TechCity,Madhapur", "longitude": null, "landmark": "mind space", "created_on": "2008-10-03 11:29:15", "place": "(E.g. 4th Floor, Building No.10,Titus)", "modified_on": "2008-10-03 11:29:15", "latitude": null}}, {"pk": 9, "model": "common.address", "fields": {"city": "Hyderabad", "zip": 517507, "area": "cib qrts", "longitude": null, "landmark": "40/d", "created_on": "2008-10-07 14:13:14", "place": "6-1-503/5", "modified_on": "2008-10-07 14:13:14", "latitude": null}}, {"pk": 10, "model": "common.address", "fields": {"city": "Hyderabad", "zip": 500081, "area": "Hi-TechCity,Madhapur", "longitude": null, "landmark": "madhapur", "created_on": "2008-10-07 14:13:14", "place": "favmeal", "modified_on": "2008-10-07 14:13:14", "latitude": null}}, {"pk": 11, "model": "common.address", "fields": {"city": "Hyderabad", "zip": 500081, "area": "dhs", "longitude": null, "landmark": "ert", "created_on": "2008-10-07 14:19:07", "place": "4", "modified_on": "2008-10-07 14:19:07", "latitude": null}}, {"pk": 12, "model": "common.address", "fields": {"city": "Hyderabad", "zip": 500081, "area": "Hi-TechCity,Madhapur", "longitude": null, "landmark": "rest", "created_on": "2008-10-07 14:19:07", "place": "favmeal", "modified_on": "2008-10-07 14:19:07", "latitude": null}}, {"pk": 13, "model": "common.address", "fields": {"city": "Hyderabad", "zip": 500004, "area": "Hitech City,Madhapur", "longitude": null, "landmark": "Wipro Building", "created_on": "2008-10-07 14:20:13", "place": "Main Road", "modified_on": "2008-10-07 14:20:13", "latitude": null}}, {"pk": 14, "model": "common.address", "fields": {"city": "Hyderabad", "zip": 500033, "area": "Hi-TechCity,Madhapur", "longitude": null, "landmark": "test", "created_on": "2008-10-07 14:20:13", "place": "favmeal", "modified_on": "2008-10-07 14:20:13", "latitude": null}}, {"pk": 15, "model": "common.address", "fields": {"city": "Hyderabad", "zip": 500033, "area": "Hi-TechCity,Madhapur", "longitude": null, "landmark": "Swami Ayyappa Housing Society", "created_on": "2008-10-12 09:32:37", "place": "favmeal", "modified_on": "2008-10-12 09:32:37", "latitude": null}}, {"pk": 16, "model": "common.address", "fields": {"city": "Hyderabad", "zip": 500001, "area": "Hi-TechCity,Madhapur", "longitude": null, "landmark": "CYBER PEARL", "created_on": "2008-10-16 16:45:39", "place": "ZENQA, FIRST FLOOR, ", "modified_on": "2008-10-16 16:45:39", "latitude": null}}, {"pk": 17, "model": "common.address", "fields": {"city": "Hyderabad", "zip": 500001, "area": "Hi-TechCity,Madhapur", "longitude": null, "landmark": "Green Park Hotel/Syndicate Bank", "created_on": "2008-10-16 17:59:01", "place": "ANNOVA Tech", "modified_on": "2008-10-16 17:59:01", "latitude": null}}, {"pk": 18, "model": "common.address", "fields": {"city": "Hyderabad", "zip": 500018, "area": ", BSP Colony, Mothi Nagar", "longitude": null, "landmark": "Shiva Reddy Sweets Or Royal Motors", "created_on": "2008-10-20 10:26:32", "place": "A-101, Sai Krupa Residency", "modified_on": "2008-10-20 10:26:32", "latitude": null}}, {"pk": 19, "model": "common.address", "fields": {"city": "Hyderabad", "zip": 500019, "area": "Gachibowli", "longitude": null, "landmark": "Opp Istaa restaurant", "created_on": "2008-10-20 10:26:32", "place": "Sierra Atlantic", "modified_on": "2008-10-20 10:26:32", "latitude": null}}, {"pk": 20, "model": "common.address", "fields": {"city": "Hyderabad", "zip": 500033, "area": "Hi-TechCity,Madhapur", "longitude": null, "landmark": "Street Opp. Mohan Diabetic Centre", "created_on": "2008-10-20 12:29:04", "place": "Build InfoTech Solutions Pvt. Ltd. Plot No, 502/B, Amarjyothi complex, Road no 31", "modified_on": "2008-10-20 12:29:04", "latitude": null}}, {"pk": 21, "model": "common.address", "fields": {"city": "Hyderabad", "zip": 500049, "area": "Madhinaguda", "longitude": null, "landmark": "opp Heritage Fresh", "created_on": "2008-10-20 13:24:58", "place": "409 F, Satyanarayana Enclave, Madhinaguda", "modified_on": "2008-10-20 13:24:58", "latitude": null}}, {"pk": 22, "model": "common.address", "fields": {"city": "Hyderabad", "zip": 500001, "area": "Hi-TechCity,Madhapur", "longitude": null, "landmark": "Close to TRS office", "created_on": "2008-10-20 13:24:58", "place": "Indo American Cancer Hospital, Road no 14, Banjara Hills", "modified_on": "2008-10-20 13:24:58", "latitude": null}}, {"pk": 23, "model": "common.address", "fields": {"city": "Hyderabad", "zip": 500018, "area": "Motinagar", "longitude": null, "landmark": "Near P R Nagar Busstop", "created_on": "2008-10-20 20:44:14", "place": "Padmasai Apartments", "modified_on": "2008-10-20 20:44:14", "latitude": null}}, {"pk": 24, "model": "common.address", "fields": {"city": "Hyderabad", "zip": 500081, "area": "Hi-TechCity,Madhapur", "longitude": null, "landmark": "Behind Cyber Peral", "created_on": "2008-10-20 20:44:14", "place": "Hitec city", "modified_on": "2008-10-20 20:44:14", "latitude": null}}, {"pk": 25, "model": "common.address", "fields": {"city": "Hyderabad", "zip": 500018, "area": "MotiNagar, Near Erragadda", "longitude": null, "landmark": "Lane Opp to Seven Hills Public School", "created_on": "2008-10-21 00:21:52", "place": "Suryasadan Apts, Plot# 106/1", "modified_on": "2008-10-21 00:21:52", "latitude": null}}, {"pk": 26, "model": "common.address", "fields": {"city": "Hyderabad", "zip": 500081, "area": "Hi-TechCity,Madhapur", "longitude": null, "landmark": "Mindspace", "created_on": "2008-10-21 00:21:52", "place": "IBM India Pvt Ltd.,", "modified_on": "2008-10-21 00:21:52", "latitude": null}}, {"pk": 27, "model": "common.address", "fields": {"city": "Hyderabad", "zip": 500081, "area": "Hi-TechCity,Madhapur", "longitude": null, "landmark": "raheja mindspace", "created_on": "2008-10-21 15:05:54", "place": "3rd floor ibm india pvt limited", "modified_on": "2008-10-21 15:05:54", "latitude": null}}, {"pk": 29, "model": "common.address", "fields": {"city": "Hyderabad", "zip": 123456, "area": "somewhere", "longitude": null, "landmark": "donno", "created_on": "2008-10-21 23:44:59", "place": "A Test Mess", "modified_on": "2008-10-21 23:44:59", "latitude": null}}, {"pk": 30, "model": "common.address", "fields": {"city": "Hyderabad", "zip": 532514, "area": "abcd", "longitude": null, "landmark": "abcd", "created_on": "2008-10-21 23:47:36", "place": "abcd", "modified_on": "2008-10-21 23:47:36", "latitude": null}}, {"pk": 31, "model": "common.address", "fields": {"city": "Hyderabad", "zip": 500063, "area": "HN", "longitude": null, "landmark": "NK", "created_on": "2008-10-22 09:01:53", "place": "40", "modified_on": "2008-10-22 09:01:53", "latitude": null}}, {"pk": 34, "model": "common.address", "fields": {"city": "Hyderabad", "zip": 500081, "area": "Ravuri Hills", "longitude": null, "landmark": "Image Hospitals", "created_on": "2008-10-22 20:21:36", "place": "Ruchira", "modified_on": "2008-10-22 20:21:36", "latitude": null}}, {"pk": 1, "model": "common.address", "fields": {"city": "Hyderabad", "zip": 500004, "area": "Hitech City,Madhapur", "longitude": "0E-14", "landmark": "Wipro Building", "created_on": "2008-09-21 00:05:42", "place": "Main Road", "modified_on": "2008-09-21 00:05:42", "latitude": "0E-14"}}, {"pk": 2, "model": "common.address", "fields": {"city": "Hyderabad", "zip": 500063, "area": "HimayathNagar", "longitude": null, "landmark": "Mitra Motors,Gurukul High School", "created_on": "2008-09-21 10:16:59", "place": "3-6-511", "modified_on": "2008-09-21 10:16:59", "latitude": null}}, {"pk": 3, "model": "common.address", "fields": {"city": "Hyderabad", "zip": 500081, "area": "Hi-TechCity,Madhapur", "longitude": null, "landmark": "Mindspace", "created_on": "2008-09-21 10:16:59", "place": "4th Floor, Building No.10,Titus", "modified_on": "2008-09-21 10:16:59", "latitude": null}}, {"pk": 4, "model": "common.address", "fields": {"city": "Hyderabad", "zip": 500063, "area": "(E.g. HimayathNagar)", "longitude": null, "landmark": "(E.g. Mitra Motors,Gurukul High School)", "created_on": "2008-09-27 10:23:35", "place": "(E.g. 3-6-511)", "modified_on": "2008-09-27 10:23:35", "latitude": null}}, {"pk": 5, "model": "common.address", "fields": {"city": "Hyderabad", "zip": null, "area": "Dummy Area", "longitude": null, "landmark": "Dummy Landmark", "created_on": "2008-10-02 21:05:25", "place": "Dummy Place", "modified_on": "2008-10-02 21:05:25", "latitude": null}}, {"pk": 37, "model": "common.address", "fields": {"city": "Hyderabad", "zip": 500082, "area": "Ameerpet", "longitude": null, "landmark": "Big Bazaar", "created_on": "2008-10-29 16:32:13", "place": "3-4-4-4", "modified_on": "2008-10-29 16:32:13", "latitude": null}}, {"pk": 39, "model": "common.address", "fields": {"city": "Hyderabad", "zip": 500018, "area": "dsnr", "longitude": null, "landmark": "near dilsukh nagar", "created_on": "2008-10-30 15:15:01", "place": "chaitanyapuri", "modified_on": "2008-10-30 15:15:01", "latitude": null}}, {"pk": 43, "model": "common.address", "fields": {"city": "Hyderabad", "zip": 500040, "area": "chikkadpalli", "longitude": null, "landmark": "opposite chandanabrothers", "created_on": "2008-11-01 09:59:30", "place": "varada mess", "modified_on": "2008-11-01 09:59:30", "latitude": null}}, {"pk": 44, "model": "common.address", "fields": {"city": "Hyderabad", "zip": 500033, "area": "Ameerpet", "longitude": null, "landmark": "opp.Huda Complex", "created_on": "2008-11-01 12:15:02", "place": "Harsha Deluxe Mess", "modified_on": "2008-11-01 12:15:02", "latitude": null}}, {"pk": 45, "model": "common.address", "fields": {"city": "Hyderabad", "zip": 500033, "area": "Banjara Hills, Rd#1", "longitude": null, "landmark": "ANR Centre", "created_on": "2008-11-01 12:17:15", "place": "Aztecsoft, 3rd Floor", "modified_on": "2008-11-01 12:17:15", "latitude": null}}, {"pk": 46, "model": "common.address", "fields": {"city": "Hyderabad", "zip": 500407, "area": "Rajendranagar", "longitude": null, "landmark": "ANGRAU Campus", "created_on": "2008-11-01 14:31:32", "place": "National Academy of Agricultural Research Management (NAARM)", "modified_on": "2008-11-01 14:31:32", "latitude": null}}, {"pk": 54, "model": "common.address", "fields": {"city": "Hyderabad", "zip": null, "area": "Ameerpet", "longitude": null, "landmark": "Ameerpet", "created_on": "2008-11-10 08:43:05", "place": "Harsha Deluxe Mess", "modified_on": "2008-11-10 08:43:05", "latitude": null}}, {"pk": 55, "model": "common.address", "fields": {"city": "Hyderabad", "zip": null, "area": "Ameerpet", "longitude": null, "landmark": "Ameerpet", "created_on": "2008-11-10 08:44:43", "place": "Kakathiya Mess", "modified_on": "2008-11-10 08:44:43", "latitude": null}}, {"pk": 57, "model": "common.address", "fields": {"city": "Hyderabad", "zip": 500044, "area": "CHERLAPALLY", "longitude": null, "landmark": "HCL CABLES", "created_on": "2008-11-11 16:18:46", "place": "CHERLAPALLY", "modified_on": "2008-11-11 16:18:46", "latitude": null}}, {"pk": 59, "model": "common.address", "fields": {"city": "Hyderabad", "zip": 500008, "area": "Khairtabad", "longitude": null, "landmark": "Khairtabad", "created_on": "2008-11-12 14:04:26", "place": "Khairatabad", "modified_on": "2008-11-12 14:04:26", "latitude": null}}, {"pk": 61, "model": "common.address", "fields": {"city": "Hyderabad", "zip": 500049, "area": "Mythrinagar, Madinaguda", "longitude": null, "landmark": "Opposite Ganesh Temple", "created_on": "2008-11-12 15:57:03", "place": "Flat: 103, Plot#10 and 11, Sai Geetha Residency", "modified_on": "2008-11-12 15:57:03", "latitude": null}}, {"pk": 66, "model": "common.address", "fields": {"city": "Hyderabad", "zip": 500070, "area": "ashoknagar", "longitude": null, "landmark": "near Vinayaka temple", "created_on": "2008-11-14 14:33:40", "place": "3-6-511", "modified_on": "2008-11-14 14:33:40", "latitude": null}}, {"pk": 28, "model": "common.address", "fields": {"city": "Hyderabad", "zip": 500081, "area": "Hi-TechCity,Madhapur", "longitude": null, "landmark": "Mindspace", "created_on": "2008-10-21 23:26:36", "place": "4th Floor, Building No.10,Titus", "modified_on": "2008-11-16 00:30:27", "latitude": null}}, {"pk": 32, "model": "common.address", "fields": {"city": "Hyderabad", "zip": 500081, "area": "Hi-TechCity,Madhapur", "longitude": null, "landmark": "Mindspace", "created_on": "2008-10-22 09:01:53", "place": "40", "modified_on": "2008-11-16 00:30:27", "latitude": null}}, {"pk": 33, "model": "common.address", "fields": {"city": "Hyderabad", "zip": 500019, "area": "Gachibowli", "longitude": null, "landmark": "Opposite Ista Hotel", "created_on": "2008-10-22 12:41:14", "place": "(Sierra Atlantic Software Services Ltd, Plot # 9, Survey, #115,Nanakramguda ", "modified_on": "2008-11-16 00:30:27", "latitude": null}}, {"pk": 35, "model": "common.address", "fields": {"city": "Hyderabad", "zip": 500049, "area": "Kondapur", "longitude": null, "landmark": "Near RTA Office", "created_on": "2008-10-23 15:51:53", "place": "4-1076, 7th Street, Marthand Nagar, New Hafeezpet, Hyderabad", "modified_on": "2008-11-16 00:30:27", "latitude": null}}, {"pk": 36, "model": "common.address", "fields": {"city": "Hyderabad", "zip": 500081, "area": "Hi-TechCity,Madhapur", "longitude": null, "landmark": "67", "created_on": "2008-10-29 07:49:15", "place": "67", "modified_on": "2008-11-16 00:30:27", "latitude": null}}, {"pk": 38, "model": "common.address", "fields": {"city": "Hyderabad", "zip": 500081, "area": "Hi-TechCity,Madhapur", "longitude": null, "landmark": "Opp to Hitech City", "created_on": "2008-10-29 16:32:13", "place": "3rd Main, 2nd Cross,", "modified_on": "2008-11-16 00:30:27", "latitude": null}}, {"pk": 40, "model": "common.address", "fields": {"city": "Hyderabad", "zip": 500081, "area": "Hi-TechCity,Madhapur", "longitude": null, "landmark": "opp. jayaberi towers", "created_on": "2008-10-30 15:15:02", "place": "satyam-cyberspace", "modified_on": "2008-11-16 00:30:27", "latitude": null}}, {"pk": 41, "model": "common.address", "fields": {"city": "Hyderabad", "zip": 500081, "area": "Hi-TechCity,Madhapur", "longitude": null, "landmark": "Mindspace, Beside CSC building", "created_on": "2008-10-31 21:03:08", "place": "4th Floor, Building No.10,Titus", "modified_on": "2008-11-16 00:30:27", "latitude": null}}, {"pk": 42, "model": "common.address", "fields": {"city": "Hyderabad", "zip": 500081, "area": "Hi-TechCity,Madhapur", "longitude": null, "landmark": "Mind Space", "created_on": "2008-10-31 21:04:18", "place": " 4th Floor, Building No.10,Titus", "modified_on": "2008-11-16 00:30:27", "latitude": null}}, {"pk": 47, "model": "common.address", "fields": {"city": "Hyderabad", "zip": 500003, "area": "Hi-TechCity,Madhapur", "longitude": null, "landmark": "Mindspace", "created_on": "2008-11-05 09:14:01", "place": "4th Floor, Building No.10,Titus", "modified_on": "2008-11-16 00:30:27", "latitude": null}}, {"pk": 48, "model": "common.address", "fields": {"city": "Hyderabad", "zip": 500008, "area": "Gachibowli", "longitude": null, "landmark": "Behind Wipro", "created_on": "2008-11-06 12:07:13", "place": "E Block, Deloitte", "modified_on": "2008-11-16 00:30:27", "latitude": null}}, {"pk": 49, "model": "common.address", "fields": {"city": "Hyderabad", "zip": 500084, "area": "Kondapur", "longitude": null, "landmark": "kothaguda", "created_on": "2008-11-07 11:19:35", "place": "1-511", "modified_on": "2008-11-16 00:30:27", "latitude": null}}, {"pk": 50, "model": "common.address", "fields": {"city": "Hyderabad", "zip": 500008, "area": "Gachibowli", "longitude": null, "landmark": "Next to WIPRO office", "created_on": "2008-11-07 12:28:48", "place": "Deloitte Office ", "modified_on": "2008-11-16 00:30:27", "latitude": null}}, {"pk": 51, "model": "common.address", "fields": {"city": "Hyderabad", "zip": 500081, "area": "Hi-TechCity,Madhapur", "longitude": null, "landmark": "VBIT", "created_on": "2008-11-07 18:46:07", "place": "Datamonitor , Vega block, the V PArk ", "modified_on": "2008-11-16 00:30:27", "latitude": null}}, {"pk": 52, "model": "common.address", "fields": {"city": "Hyderabad", "zip": 500081, "area": "Hi-TechCity,Madhapur", "longitude": null, "landmark": "behind cyber gate ways", "created_on": "2008-11-07 22:01:27", "place": "Dell computers", "modified_on": "2008-11-16 00:30:27", "latitude": null}}, {"pk": 53, "model": "common.address", "fields": {"city": "Hyderabad", "zip": 500032, "area": "Kondapur", "longitude": null, "landmark": "Near Novotel hotel,Shilpa park lane", "created_on": "2008-11-08 13:24:29", "place": "Flat#408,Sri SaiKeshava towers", "modified_on": "2008-11-16 00:30:27", "latitude": null}}, {"pk": 56, "model": "common.address", "fields": {"city": "Hyderabad", "zip": 500019, "area": "Gachibowli", "longitude": null, "landmark": "Nanakram guda, near Polaris circle", "created_on": "2008-11-11 12:37:27", "place": "Franklin Templeton, FT Park, ", "modified_on": "2008-11-16 00:30:27", "latitude": null}}, {"pk": 58, "model": "common.address", "fields": {"city": "Hyderabad", "zip": 500032, "area": "Gachibowli", "longitude": null, "landmark": "OPPOSITE IIIT HYDERABAD", "created_on": "2008-11-11 16:59:01", "place": "Tata Consultancy Services", "modified_on": "2008-11-16 00:30:27", "latitude": null}}, {"pk": 60, "model": "common.address", "fields": {"city": "Hyderabad", "zip": 500082, "area": "Hi-TechCity,Madhapur", "longitude": null, "landmark": "Hitech City", "created_on": "2008-11-12 14:04:26", "place": "Hitech city", "modified_on": "2008-11-16 00:30:27", "latitude": null}}, {"pk": 62, "model": "common.address", "fields": {"city": "Hyderabad", "zip": 500081, "area": "Hi-TechCity,Madhapur", "longitude": null, "landmark": "", "created_on": "2008-11-12 15:57:03", "place": "JDA Software India Pvt Ltd, 9th Floor, Vega Block, Software Units Layout", "modified_on": "2008-11-16 00:30:27", "latitude": null}}, {"pk": 63, "model": "common.address", "fields": {"city": "Hyderabad", "zip": 500032, "area": "Kondapur", "longitude": null, "landmark": "1 KM from Chirec Public School", "created_on": "2008-11-13 12:12:24", "place": "403, Gautami Paradise Apartment, Masid Banda , Botanical Garden Road", "modified_on": "2008-11-16 00:30:27", "latitude": null}}, {"pk": 64, "model": "common.address", "fields": {"city": "Hyderabad", "zip": 500081, "area": "Hi-TechCity,Madhapur", "longitude": null, "landmark": "mind spae", "created_on": "2008-11-14 05:33:35", "place": "satyam BPO", "modified_on": "2008-11-16 00:30:27", "latitude": null}}, {"pk": 65, "model": "common.address", "fields": {"city": "Hyderabad", "zip": 500032, "area": "Gachibowli", "longitude": null, "landmark": "Opposite Infotech", "created_on": "2008-11-14 11:57:17", "place": "Capgemini India Pvt Ltd., Plot No.1 IT Park", "modified_on": "2008-11-16 00:30:27", "latitude": null}}, {"pk": 67, "model": "common.address", "fields": {"city": "Hyderabad", "zip": 500034, "area": "Gachibowli", "longitude": null, "landmark": "Near TCS,", "created_on": "2008-11-14 14:33:40", "place": "DLF", "modified_on": "2008-11-16 00:30:27", "latitude": null}}, {"pk": 68, "model": "common.address", "fields": {"city": "Hyderabad", "zip": 500084, "area": "Kondapur", "longitude": null, "landmark": " beside satyam computers", "created_on": "2008-11-15 12:16:04", "place": "Business Technology Solutions pvt ltd, flat no: 205, sai residency,", "modified_on": "2008-11-16 00:30:27", "latitude": null}}, {"pk": 69, "model": "common.address", "fields": {"city": "Hyderabad", "zip": 500032, "area": "Gachibowli", "longitude": null, "landmark": "flagstone", "created_on": "2008-11-19 22:18:01", "place": "brigade towers", "modified_on": "2008-11-19 22:18:01", "latitude": null}}, {"pk": 70, "model": "common.address", "fields": {"city": "Hyderabad", "zip": 500081, "area": "Hi-TechCity,Madhapur", "longitude": null, "landmark": "Raheja mIndspace", "created_on": "2008-11-20 09:52:00", "place": "Accenture bldg", "modified_on": "2008-11-20 09:52:00", "latitude": null}}, {"pk": 71, "model": "common.address", "fields": {"city": "Hyderabad", "zip": 500008, "area": "Gachibowli", "longitude": null, "landmark": "Near Wipor Office", "created_on": "2008-11-22 10:52:10", "place": "Deloitte Office Gachibowli", "modified_on": "2008-11-22 10:52:10", "latitude": null}}, {"pk": 72, "model": "common.address", "fields": {"city": "Hyderabad", "zip": 500004, "area": "Gachibowli", "longitude": null, "landmark": "adjacent to Wipro - gachibowli", "created_on": "2008-11-28 12:22:39", "place": "Deloitte, Block E, Gachibowli", "modified_on": "2008-11-28 12:22:39", "latitude": null}}, {"pk": 73, "model": "common.address", "fields": {"city": "Hyderabad", "zip": 500084, "area": "Hi-TechCity,Madhapur", "longitude": null, "landmark": "jayabheri silicon towers", "created_on": "2008-11-28 13:18:39", "place": "HSBC Software development (I) ltd,Laxmi cyber city, block A, Survey No 10, serilingampally, hyd-84.", "modified_on": "2008-11-28 13:18:39", "latitude": null}}, {"pk": 74, "model": "common.address", "fields": {"city": "Hyderabad", "zip": 500019, "area": "Nanakramguda", "longitude": null, "landmark": "Near UBS", "created_on": "2008-11-30 15:57:05", "place": "Franklin Templeton Park,Plot No.18-23,Financial District,Nanakramguda,Hyderbad-500019", "modified_on": "2008-11-30 15:57:05", "latitude": null}}, {"pk": 75, "model": "common.address", "fields": {"city": "Hyderabad", "zip": 500019, "area": "Gachibowli", "longitude": null, "landmark": "near U B S", "created_on": "2008-11-30 16:10:08", "place": "franklin templeton park plot no 18-23 nanakramguda", "modified_on": "2008-11-30 16:10:08", "latitude": null}}, {"pk": 76, "model": "common.address", "fields": {"city": "Hyderabad", "zip": 500019, "area": "Gachibowli", "longitude": null, "landmark": "nanakramguda", "created_on": "2008-11-30 16:23:41", "place": "franklintempleton  invst plot no 19-23", "modified_on": "2008-11-30 16:23:41", "latitude": null}}, {"pk": 77, "model": "common.address", "fields": {"city": "Hyderabad", "zip": 500031, "area": "Kondapur", "longitude": null, "landmark": "Green Fields", "created_on": "2008-12-02 19:40:43", "place": "B501, Golden Habitat, Kothaguda", "modified_on": "2008-12-02 19:40:43", "latitude": null}}, {"pk": 78, "model": "common.address", "fields": {"city": "Hyderabad", "zip": 111111, "area": "Gachibowli", "longitude": null, "landmark": "sssssssss", "created_on": "2008-12-03 13:39:59", "place": "sssssss", "modified_on": "2008-12-03 13:39:59", "latitude": null}}, {"pk": 79, "model": "common.address", "fields": {"city": "Hyderabad", "zip": 500081, "area": "Hi-TechCity,Madhapur", "longitude": null, "landmark": "Hitech City Layout, Oracle", "created_on": "2008-12-05 10:15:04", "place": "Oracle India Pvt Ltd, 3rd Floor, Ananth Info Park,  Hitech City Layout, Madhapur, Hyderabad", "modified_on": "2008-12-05 10:15:04", "latitude": null}}, {"pk": 80, "model": "common.address", "fields": {"city": "Hyderabad", "zip": 500081, "area": "Hi-TechCity,Madhapur", "longitude": null, "landmark": "OPP DELL", "created_on": "2008-12-05 15:52:39", "place": "HSBC, PLOT # 8, LAYOUT 64, HITEC CITY, MADHAPUR, HYDERABAD - 81", "modified_on": "2008-12-05 15:52:39", "latitude": null}}, {"pk": 81, "model": "common.address", "fields": {"city": "Hyderabad", "zip": 500032, "area": "Hi-TechCity,Madhapur", "longitude": null, "landmark": "Opp: Jayabheri Silicon County, VLCC Building", "created_on": "2008-12-05 16:13:18", "place": "5th floor, bhaskar Empire", "modified_on": "2008-12-05 16:13:18", "latitude": null}}, {"pk": 82, "model": "common.address", "fields": {"city": "Hyderabad", "zip": 500081, "area": "Hi-TechCity,Madhapur", "longitude": null, "landmark": "Raheja Mindspace", "created_on": "2008-12-11 11:51:47", "place": "3rd floor, Bldg. No. 8, ", "modified_on": "2008-12-11 11:51:47", "latitude": null}}, {"pk": 83, "model": "common.address", "fields": {"city": "Hyderabad", "zip": 500040, "area": "Maula Ali", "longitude": null, "landmark": "Eveready factory", "created_on": "2008-12-11 14:26:41", "place": "Flat-101, S.V Pearls Apts Plot-155, Tirumala Nagar", "modified_on": "2008-12-11 14:26:41", "latitude": null}}, {"pk": 84, "model": "common.address", "fields": {"city": "Hyderabad", "zip": 500081, "area": "Hi-TechCity,Madhapur", "longitude": null, "landmark": "Mindspace IT Park", "created_on": "2008-12-11 14:26:41", "place": "Inkriti, Unit-209 Maximus towers B wing", "modified_on": "2008-12-11 14:26:41", "latitude": null}}, {"pk": 85, "model": "common.address", "fields": {"city": "Hyderabad", "zip": 500042, "area": "Gachibowli", "longitude": null, "landmark": "Opposite to flogstone.", "created_on": "2008-12-11 14:26:57", "place": "Brigade/Brigade towers, behand UBS. ", "modified_on": "2008-12-11 14:26:57", "latitude": null}}, {"pk": 86, "model": "common.address", "fields": {"city": "Hyderabad", "zip": 520034, "area": "Road No.2, Banjara Hills", "longitude": null, "landmark": "Near Jubilee Hills Checkpost", "created_on": "2008-12-15 14:26:09", "place": "Applabs", "modified_on": "2008-12-15 14:26:09", "latitude": null}}, {"pk": 87, "model": "common.address", "fields": {"city": "Hyderabad", "zip": 500032, "area": "Kondapur", "longitude": null, "landmark": "White fields", "created_on": "2008-12-16 23:11:01", "place": "Lotus", "modified_on": "2008-12-16 23:11:01", "latitude": null}}, {"pk": 88, "model": "common.address", "fields": {"city": "Hyderabad", "zip": 500081, "area": "Banjara Hills, Road #10", "longitude": null, "landmark": "Karvy", "created_on": "2008-12-17 12:24:35", "place": "Peoplelex Services Private Ltd.", "modified_on": "2008-12-17 12:24:35", "latitude": null}}, {"pk": 89, "model": "common.address", "fields": {"city": "Hyderabad", "zip": 411045, "area": "Baner", "longitude": null, "landmark": "Mitrangan", "created_on": "2008-12-17 14:26:09", "place": "A-501", "modified_on": "2008-12-17 14:26:09", "latitude": null}}, {"pk": 90, "model": "common.address", "fields": {"city": "Hyderabad", "zip": 500032, "area": "Gachibowli", "longitude": null, "landmark": "Hinjewadi", "created_on": "2008-12-17 14:26:09", "place": "Wipro", "modified_on": "2008-12-17 14:26:09", "latitude": null}}, {"pk": 91, "model": "common.address", "fields": {"city": "Hyderabad", "zip": 411057, "area": "Hi-TechCity,Madhapur", "longitude": null, "landmark": "Hinjewadi", "created_on": "2008-12-17 15:15:16", "place": "wipro", "modified_on": "2008-12-17 15:15:16", "latitude": null}}, {"pk": 92, "model": "common.address", "fields": {"city": "Hyderabad", "zip": 500091, "area": "Gachibowli", "longitude": null, "landmark": "Opp. Hotel ISTA ", "created_on": "2008-12-18 18:11:56", "place": "Plot # 9, Survey, #115, Nanakramguda", "modified_on": "2008-12-18 18:11:56", "latitude": null}}, {"pk": 93, "model": "common.address", "fields": {"city": "Hyderabad", "zip": 500032, "area": "Gachibowli", "longitude": null, "landmark": "Opp Infotech", "created_on": "2008-12-18 22:12:27", "place": "Capgemini, Plot No-1, IT Park, Nanakramguda, Gachibowli", "modified_on": "2008-12-18 22:12:27", "latitude": null}}, {"pk": 94, "model": "common.address", "fields": {"city": "Hyderabad", "zip": 500046, "area": "Gachibowli", "longitude": null, "landmark": "Near Main Gate", "created_on": "2008-12-19 10:57:58", "place": "Admin Building, University of Hyderabad", "modified_on": "2008-12-19 10:57:58", "latitude": null}}, {"pk": 95, "model": "common.address", "fields": {"city": "Hyderabad", "zip": 500081, "area": "Gachibowli", "longitude": null, "landmark": "near seira atlantic", "created_on": "2008-12-19 13:58:22", "place": "virtusa", "modified_on": "2008-12-19 13:58:22", "latitude": null}}, {"pk": 96, "model": "common.address", "fields": {"city": "Hyderabad", "zip": 500095, "area": "Jambagh,Hyderabad", "longitude": null, "landmark": "Street no-15 sign board", "created_on": "2008-12-20 14:02:45", "place": "5-1-326, Gowliguda", "modified_on": "2008-12-20 14:02:45", "latitude": null}}, {"pk": 97, "model": "common.address", "fields": {"city": "Hyderabad", "zip": 500084, "area": "Kondapur", "longitude": null, "landmark": "Next to Fresh @ Kondapur Outlet", "created_on": "2008-12-20 14:02:45", "place": "5th Floor, Ektha Towers, Whitefileld,Kondapur", "modified_on": "2008-12-20 14:02:45", "latitude": null}}, {"pk": 98, "model": "common.address", "fields": {"city": "Hyderabad", "zip": 500081, "area": "Hi-TechCity,Madhapur", "longitude": null, "landmark": "Nxt to Cyber Gateway", "created_on": "2008-12-20 14:30:19", "place": "VALYD-RSA,CyberPearl,3rd floor,Block II", "modified_on": "2008-12-20 14:30:19", "latitude": null}}, {"pk": 99, "model": "common.address", "fields": {"city": "Hyderabad", "zip": 500084, "area": "Kondapur", "longitude": null, "landmark": "Jaybheri", "created_on": "2008-12-24 16:31:45", "place": "HSBC GLT,Block a", "modified_on": "2008-12-24 16:31:45", "latitude": null}}, {"pk": 100, "model": "common.address", "fields": {"city": "Hyderabad", "zip": 500032, "area": "Kondapur", "longitude": null, "landmark": "Opp. Botanical Gardens", "created_on": "2008-12-25 12:03:14", "place": "Flat-501,Lotus Arcadia", "modified_on": "2008-12-25 12:03:14", "latitude": null}}, {"pk": 101, "model": "common.address", "fields": {"city": "Hyderabad", "zip": 500084, "area": "Kondapur", "longitude": null, "landmark": "Kondaput ( next to vsantha valley, behind Satyam )", "created_on": "2008-12-25 19:09:28", "place": "Green Terraces Apartment,Whitefield road", "modified_on": "2008-12-25 19:09:28", "latitude": null}}, {"pk": 102, "model": "common.address", "fields": {"city": "Hyderabad", "zip": 500084, "area": "Kondapur", "longitude": null, "landmark": "Kondaput ( next to vsantha valley, behind Satyam )", "created_on": "2008-12-25 19:15:01", "place": "C 103, Green Terraces Apartment,Whitefield road", "modified_on": "2008-12-25 19:15:01", "latitude": null}}, {"pk": 103, "model": "common.address", "fields": {"city": "Hyderabad", "zip": 500004, "area": "AC Guards", "longitude": null, "landmark": "Opp Vijaya Hills", "created_on": "2008-12-26 16:03:28", "place": "Flat no 404, 4th Floor, Trendset Hilltop Apartments,", "modified_on": "2008-12-26 16:03:28", "latitude": null}}, {"pk": 104, "model": "common.address", "fields": {"city": "Hyderabad", "zip": 500084, "area": "Kondapur", "longitude": null, "landmark": "Near V V Reddy Sweets", "created_on": "2008-12-26 20:15:27", "place": "A-305, Golden Habitat, B P Raju Marg, Whitefield", "modified_on": "2008-12-26 20:15:27", "latitude": null}}, {"pk": 105, "model": "common.address", "fields": {"city": "Hyderabad", "zip": 500084, "area": "Kondapur", "longitude": null, "landmark": "opp:Botanical gardens", "created_on": "2008-12-27 18:07:30", "place": "103 south block, Express towers", "modified_on": "2008-12-27 18:07:30", "latitude": null}}, {"pk": 106, "model": "common.address", "fields": {"city": "Hyderabad", "zip": 500034, "area": "Banjara Hills", "longitude": null, "landmark": "Opposite Lane to Famila Hosipital,", "created_on": "2008-12-29 15:29:07", "place": "GingersoftMedia Pvt Ltd, 8-2-703/4/1,Plot No:-37, Road NO:- 12, Banjara Hills", "modified_on": "2008-12-29 15:29:07", "latitude": null}}, {"pk": 107, "model": "common.address", "fields": {"city": "Hyderabad", "zip": 500072, "area": "Gachibowli", "longitude": null, "landmark": "lifestyle", "created_on": "2008-12-29 15:30:44", "place": "virtusa, mht", "modified_on": "2008-12-29 15:30:44", "latitude": null}}, {"pk": 108, "model": "common.address", "fields": {"city": "Hyderabad", "zip": 50081, "area": "Hi-TechCity,Madhapur", "longitude": null, "landmark": " Mindspace", "created_on": "2008-12-29 15:45:49", "place": "4th Floor, Building No.10,Titus", "modified_on": "2008-12-29 15:45:49", "latitude": null}}, {"pk": 109, "model": "common.address", "fields": {"city": "Hyderabad", "zip": 500032, "area": "Gachibowli", "longitude": null, "landmark": "Microsoft India Pvt Ltd", "created_on": "2009-01-01 21:36:29", "place": "3A6146, Building 3, Microsoft Pvt India Ltd", "modified_on": "2009-01-01 21:36:29", "latitude": null}}, {"pk": 110, "model": "common.address", "fields": {"city": "Hyderabad", "zip": 500081, "area": "Hi-TechCity,Madhapur", "longitude": null, "landmark": "Deloitte Street", "created_on": "2009-01-02 14:52:21", "place": "3rd Floor, C block, Deloitte", "modified_on": "2009-01-02 14:52:21", "latitude": null}}, {"pk": 111, "model": "common.address", "fields": {"city": "Hyderabad", "zip": 500081, "area": "Hi-TechCity,Madhapur", "longitude": null, "landmark": "Hitech City", "created_on": "2009-01-02 15:36:06", "place": "HCL Technologies", "modified_on": "2009-01-02 15:36:06", "latitude": null}}, {"pk": 112, "model": "common.address", "fields": {"city": "Hyderabad", "zip": 500033, "area": "Hi-TechCity,Madhapur", "longitude": null, "landmark": "Bldg 5B,Mind Space, K.Raheja IT Park,", "created_on": "2009-01-02 18:12:37", "place": "BA Continuum Solutions Pvt. Ltd.", "modified_on": "2009-01-02 18:12:37", "latitude": null}}, {"pk": 113, "model": "common.address", "fields": {"city": "Hyderabad", "zip": 500005, "area": "Kondapur", "longitude": null, "landmark": "sdfsd  sdfsd", "created_on": "2009-01-06 13:21:07", "place": "sfsd sfsd", "modified_on": "2009-01-06 13:21:07", "latitude": null}}, {"pk": 114, "model": "common.address", "fields": {"city": "Hyderabad", "zip": 500063, "area": " HimayathNagar", "longitude": null, "landmark": " Mitra Motors,Gurukul High School)", "created_on": "2009-01-07 10:28:56", "place": " 3-6-511", "modified_on": "2009-01-07 10:28:56", "latitude": null}}, {"pk": 115, "model": "common.address", "fields": {"city": "Hyderabad", "zip": 500082, "area": "Hi-TechCity,Madhapur", "longitude": null, "landmark": " Mindspace", "created_on": "2009-01-07 10:28:56", "place": " 4th Floor, Building No.10,Titus", "modified_on": "2009-01-07 10:28:56", "latitude": null}}, {"pk": 116, "model": "common.address", "fields": {"city": "Hyderabad", "zip": 500019, "area": "Gachibowli", "longitude": null, "landmark": "Near Istha Hotel", "created_on": "2009-01-07 19:42:57", "place": "Sierra Atlantic Software services ltd.", "modified_on": "2009-01-07 19:42:57", "latitude": null}}, {"pk": 117, "model": "common.address", "fields": {"city": "Hyderabad", "zip": 500081, "area": "Vengal rao nagar,  (ask as meghana curry point)", "longitude": null, "landmark": "Opp SR nagar junc,lane besides hungr jaks,1st left", "created_on": "2009-01-08 21:07:57", "place": "Meghana take away parcels", "modified_on": "2009-01-08 21:07:57", "latitude": null}}, {"pk": 118, "model": "common.address", "fields": {"city": "Hyderabad", "zip": 500072, "area": "Hi-TechCity,Madhapur", "longitude": null, "landmark": "Beside Cyber towers", "created_on": "2009-01-12 18:47:46", "place": "Wipro Madhapur", "modified_on": "2009-01-12 18:47:46", "latitude": null}}, {"pk": 119, "model": "common.address", "fields": {"city": "Hyderabad", "zip": 500008, "area": "Gachibowli", "longitude": null, "landmark": "next to wipro gachibowli", "created_on": "2009-01-16 12:01:54", "place": "deloitte office gachibowli", "modified_on": "2009-01-16 12:01:54", "latitude": null}}, {"pk": 120, "model": "common.address", "fields": {"city": "Hyderabad", "zip": 500081, "area": "Hi-TechCity,Madhapur", "longitude": null, "landmark": "Next to Vasantha Valeey", "created_on": "2009-01-16 18:16:39", "place": "C 103 , Green Terraces Apartment,Whitefield Road , Kondapur", "modified_on": "2009-01-16 18:16:39", "latitude": null}}]
